{
  "type": "Feature",
  "geometry": {
    "type": "Polygon",
    "coordinates": [[
      [-8.6177, 54.4187],
      [-6.0797, 55.2048],
      [-4.7197, 55.8117],
      [-3.0937, 56.0000],
      [-3.6144, 55.0364],
      [-4.7197, 54.5388],
      [-5.7897, 54.0894],
      [-6.3597, 53.3094],
      [-7.6406, 52.6400],
      [-9.7197, 51.4167],
      [-10.7197, 51.4167],
      [-10.7197, 50.6800],
      [-5.1406, 49.9600],
      [-2.5000, 49.9600],
      [1.7803, 50.6800],
      [1.7803, 51.4167],
      [0.7803, 51.4167],
      [1.2803, 52.6400],
      [1.7803, 53.3094],
      [1.2803, 54.0894],
      [0.7803, 54.5388],
      [-0.2197, 55.0364],
      [-0.7197, 56.0000],
      [-2.2197, 55.8117],
      [-3.7197, 55.2048],
      [-5.7197, 54.4187],
      [-8.6177, 54.4187]
    ]]
  }
}